{
  "norad_id": 59078,
  "name": "STARLINK-31274",
  "history": [
    {
      "epoch": "2026-03-28T14:32:39.599232Z",
      "apogee_km": 483.8229789553279,
      "perigee_km": 482.2339330357181,
      "latitude_deg": -2.9455078084228226e-05,
      "longitude_deg": 159.75682143753122,
      "height_km": 482.6485423829642,
      "semi_major_axis_km": 6861.165455995522,
      "eccentricity": 0.0001158,
      "inclination_deg": 42.9981,
      "raan_deg": 203.9459,
      "arg_perigee_deg": 281.3383,
      "mean_anomaly_deg": 78.7338,
      "mean_motion_rev_day": 15.27586893
    },
    {
      "epoch": "2026-03-28T23:57:35.913312Z",
      "apogee_km": 484.296023709363,
      "perigee_km": 481.78071681862457,
      "latitude_deg": -1.8021781558653212e-06,
      "longitude_deg": 15.920522067456771,
      "height_km": 482.6649915315347,
      "semi_major_axis_km": 6861.1753702639935,
      "eccentricity": 0.0001833,
      "inclination_deg": 42.9998,
      "raan_deg": 201.7309,
      "arg_perigee_deg": 276.869,
      "mean_anomaly_deg": 83.1953,
      "mean_motion_rev_day": 15.27583582
    },
    {
      "epoch": "2026-03-29T23:29:56.528736Z",
      "apogee_km": 483.97003517775465,
      "perigee_km": 482.0887033593026,
      "latitude_deg": -1.9769859042643867e-05,
      "longitude_deg": 16.32869096436025,
      "height_km": 482.6616126712526,
      "semi_major_axis_km": 6861.166369268529,
      "eccentricity": 0.0001371,
      "inclination_deg": 42.9979,
      "raan_deg": 196.1917,
      "arg_perigee_deg": 278.8185,
      "mean_anomaly_deg": 81.2511,
      "mean_motion_rev_day": 15.27586588
    },
    {
      "epoch": "2026-03-29T23:29:56.529600Z",
      "apogee_km": 483.97003517775465,
      "perigee_km": 482.0887033593026,
      "latitude_deg": -1.9769859043118507e-05,
      "longitude_deg": 16.328687354501902,
      "height_km": 482.6616126712526,
      "semi_major_axis_km": 6861.166369268529,
      "eccentricity": 0.0001371,
      "inclination_deg": 42.9979,
      "raan_deg": 196.1917,
      "arg_perigee_deg": 278.8185,
      "mean_anomaly_deg": 81.2511,
      "mean_motion_rev_day": 15.27586588
    },
    {
      "epoch": "2026-03-30T13:37:21.515232Z",
      "apogee_km": 483.6750901637206,
      "perigee_km": 482.454345154114,
      "latitude_deg": -2.3056092213510578e-05,
      "longitude_deg": 160.57324178613533,
      "height_km": 482.9498355326236,
      "semi_major_axis_km": 6861.201717658917,
      "eccentricity": 8.896e-05,
      "inclination_deg": 43.0021,
      "raan_deg": 192.8704,
      "arg_perigee_deg": 259.7466,
      "mean_anomaly_deg": 100.3285,
      "mean_motion_rev_day": 15.27574783
    },
    {
      "epoch": "2026-03-30T18:19:49.173312Z",
      "apogee_km": 484.0747668192562,
      "perigee_km": 481.92297738704656,
      "latitude_deg": -5.526108373427687e-07,
      "longitude_deg": 88.65618634708032,
      "height_km": 482.89281461907456,
      "semi_major_axis_km": 6861.135872103151,
      "eccentricity": 0.00015681,
      "inclination_deg": 43.0005,
      "raan_deg": 191.7619,
      "arg_perigee_deg": 263.753,
      "mean_anomaly_deg": 96.3143,
      "mean_motion_rev_day": 15.27596773
    },
    {
      "epoch": "2026-03-31T13:09:40.845024Z",
      "apogee_km": 483.9035393906388,
      "perigee_km": 482.02469546064276,
      "latitude_deg": 2.0531062240035744e-05,
      "longitude_deg": 160.98534856693988,
      "height_km": 482.7382211913823,
      "semi_major_axis_km": 6861.10111742564,
      "eccentricity": 0.00013692,
      "inclination_deg": 42.9996,
      "raan_deg": 187.3297,
      "arg_perigee_deg": 270.1539,
      "mean_anomaly_deg": 89.9156,
      "mean_motion_rev_day": 15.2760838
    },
    {
      "epoch": "2026-04-01T12:42:02.999232Z",
      "apogee_km": 484.04903583973373,
      "perigee_km": 482.05654632440474,
      "latitude_deg": -5.835251383349783e-05,
      "longitude_deg": 161.38912413685634,
      "height_km": 482.6886778487094,
      "semi_major_axis_km": 6861.189791082069,
      "eccentricity": 0.0001452,
      "inclination_deg": 42.9999,
      "raan_deg": 181.7926,
      "arg_perigee_deg": 278.1284,
      "mean_anomaly_deg": 81.9402,
      "mean_motion_rev_day": 15.27578766
    },
    {
      "epoch": "2026-04-02T13:48:33.240672Z",
      "apogee_km": 483.90883497712,
      "perigee_km": 482.16294092405224,
      "latitude_deg": 1.853105755206395e-05,
      "longitude_deg": 137.8238357480405,
      "height_km": 482.60995584882886,
      "semi_major_axis_km": 6861.172887950586,
      "eccentricity": 0.00012723,
      "inclination_deg": 42.9995,
      "raan_deg": 175.8844,
      "arg_perigee_deg": 283.4111,
      "mean_anomaly_deg": 76.6599,
      "mean_motion_rev_day": 15.27584411
    },
    {
      "epoch": "2026-04-02T21:39:19.844064Z",
      "apogee_km": 483.8954796985672,
      "perigee_km": 482.1070553977479,
      "latitude_deg": 3.143611697668697e-05,
      "longitude_deg": 17.961133721468276,
      "height_km": 482.62100354426036,
      "semi_major_axis_km": 6861.138267548157,
      "eccentricity": 0.00013033,
      "inclination_deg": 43.0001,
      "raan_deg": 174.0381,
      "arg_perigee_deg": 280.1053,
      "mean_anomaly_deg": 79.9652,
      "mean_motion_rev_day": 15.27595973
    },
    {
      "epoch": "2026-04-03T13:20:54.129984Z",
      "apogee_km": 484.5021788484146,
      "perigee_km": 481.702793138129,
      "latitude_deg": 2.9582983678673553e-05,
      "longitude_deg": 138.22869102599964,
      "height_km": 482.70832070034766,
      "semi_major_axis_km": 6861.239485993271,
      "eccentricity": 0.000204,
      "inclination_deg": 43.0011,
      "raan_deg": 170.343,
      "arg_perigee_deg": 277.0381,
      "mean_anomaly_deg": 83.0239,
      "mean_motion_rev_day": 15.2756217
    },
    {
      "epoch": "2026-04-04T11:19:05.734560Z",
      "apogee_km": 483.38649318098305,
      "perigee_km": 482.63780458585643,
      "latitude_deg": 2.4908783921063337e-05,
      "longitude_deg": 162.61066183383625,
      "height_km": 482.83818862811063,
      "semi_major_axis_km": 6861.14914888342,
      "eccentricity": 5.456e-05,
      "inclination_deg": 42.9989,
      "raan_deg": 165.1756,
      "arg_perigee_deg": 262.2881,
      "mean_anomaly_deg": 97.7909,
      "mean_motion_rev_day": 15.27592339
    },
    {
      "epoch": "2026-04-05T10:51:27.910368Z",
      "apogee_km": 484.9395528933874,
      "perigee_km": 481.29938188717733,
      "latitude_deg": 1.5244218866320228e-05,
      "longitude_deg": 163.00991837528878,
      "height_km": 482.56167405311567,
      "semi_major_axis_km": 6861.256467390282,
      "eccentricity": 0.00026527,
      "inclination_deg": 43.0011,
      "raan_deg": 159.634,
      "arg_perigee_deg": 280.6243,
      "mean_anomaly_deg": 79.431,
      "mean_motion_rev_day": 15.27556499
    },
    {
      "epoch": "2026-04-06T04:07:11.259840Z",
      "apogee_km": 484.05276637811494,
      "perigee_km": 482.10719969040474,
      "latitude_deg": 5.903789331731926e-05,
      "longitude_deg": -100.69278597733009,
      "height_km": 482.7013163625518,
      "semi_major_axis_km": 6861.216983034259,
      "eccentricity": 0.00014178,
      "inclination_deg": 42.9979,
      "raan_deg": 155.5708,
      "arg_perigee_deg": 279.1774,
      "mean_anomaly_deg": 80.8918,
      "mean_motion_rev_day": 15.27569685
    },
    {
      "epoch": "2026-04-07T13:04:27.073056Z",
      "apogee_km": 484.0512692462007,
      "perigee_km": 481.903740406191,
      "latitude_deg": -4.50846453726733e-06,
      "longitude_deg": 115.88706538488849,
      "height_km": 482.3399899560383,
      "semi_major_axis_km": 6861.114504826196,
      "eccentricity": 0.0001565,
      "inclination_deg": 42.9996,
      "raan_deg": 147.82,
      "arg_perigee_deg": 292.6938,
      "mean_anomaly_deg": 67.3748,
      "mean_motion_rev_day": 15.27603909
    },
    {
      "epoch": "2026-04-07T13:04:27.073920Z",
      "apogee_km": 484.0509948016206,
      "perigee_km": 481.9040148507711,
      "latitude_deg": -7.411392026354816e-06,
      "longitude_deg": 115.887058679185,
      "height_km": 482.3400958235053,
      "semi_major_axis_km": 6861.114504826196,
      "eccentricity": 0.00015646,
      "inclination_deg": 42.9996,
      "raan_deg": 147.82,
      "arg_perigee_deg": 292.6938,
      "mean_anomaly_deg": 67.3748,
      "mean_motion_rev_day": 15.27603909
    },
    {
      "epoch": "2026-04-08T03:11:51.466848Z",
      "apogee_km": 483.7245293587048,
      "perigee_km": 482.3071524048364,
      "latitude_deg": 1.6617947191089732e-05,
      "longitude_deg": -99.86958381213596,
      "height_km": 482.49874903016234,
      "semi_major_axis_km": 6861.15284088177,
      "eccentricity": 0.00010329,
      "inclination_deg": 42.9982,
      "raan_deg": 144.495,
      "arg_perigee_deg": 294.4421,
      "mean_anomaly_deg": 65.6323,
      "mean_motion_rev_day": 15.27591106
    },
    {
      "epoch": "2026-04-09T09:00:49.637664Z",
      "apogee_km": 483.82995531367396,
      "perigee_km": 482.23871245791906,
      "latitude_deg": 1.6452611770375153e-05,
      "longitude_deg": 164.64472772063527,
      "height_km": 482.94907728989045,
      "semi_major_axis_km": 6861.171333885796,
      "eccentricity": 0.00011596,
      "inclination_deg": 42.9995,
      "raan_deg": 137.4762,
      "arg_perigee_deg": 259.9869,
      "mean_anomaly_deg": 100.0852,
      "mean_motion_rev_day": 15.2758493
    },
    {
      "epoch": "2026-04-10T03:50:42.603648Z",
      "apogee_km": 483.85377145670736,
      "perigee_km": 482.2606021665297,
      "latitude_deg": -2.1064475668806813e-05,
      "longitude_deg": -123.03158336216458,
      "height_km": 483.14662162540213,
      "semi_major_axis_km": 6861.194186811618,
      "eccentricity": 0.0001161,
      "inclination_deg": 42.9983,
      "raan_deg": 133.044,
      "arg_perigee_deg": 246.8439,
      "mean_anomaly_deg": 113.229,
      "mean_motion_rev_day": 15.27577298
    }
  ]
}